{
  "type": "FeatureCollection",
  "features": [
    {
      "type": "Feature",
      "properties": {
        "norad_id": 38055,
        "name": "COSMOS 2251 DEB",
        "group": "cosmos-2251-debris",
        "lat": -0.2949214218360474,
        "lon": -163.62707588927154,
        "alt_km": 604.3388769860303,
        "timestamp": "2025-12-17T23:38:07.251508+00:00",
        "meta_object_name": "COSMOS 2251 DEB",
        "meta_object_id": "1993-036BRM",
        "meta_epoch": "2025-12-17T08:11:30.244992",
        "meta_mean_motion": 14.7702463,
        "meta_eccentricity": 0.00659373,
        "meta_inclination": 74.0086,
        "meta_ra_of_asc_node": 197.7207,
        "meta_arg_of_pericenter": 324.2561,
        "meta_mean_anomaly": 214.9327,
        "meta_ephemeris_type": 0,
        "meta_classification_type": "U",
        "meta_norad_cat_id": 38055,
        "meta_element_set_no": 999,
        "meta_rev_at_epoch": 60750,
        "meta_bstar": 0.00054119161,
        "meta_mean_motion_dot": 3.922e-05,
        "meta_mean_motion_ddot": 0,
        "tle_line1": "1 38055U 93036BRM 25351.34132228  .00003922  00000+0  54119-3 0  9991",
        "tle_line2": "2 38055  74.0086 197.7207 0065937 324.2561 214.9327 14.77024630607504"
      },
      "geometry": {
        "type": "Point",
        "coordinates": [
          -163.62707588927154,
          -0.2949214218360474
        ]
      }
    },
    {
      "type": "Feature",
      "properties": {
        "norad_id": 38060,
        "name": "COSMOS 2251 DEB",
        "group": "cosmos-2251-debris",
        "lat": -23.188325095230546,
        "lon": -81.80147988442687,
        "alt_km": 661.390597023611,
        "timestamp": "2025-12-17T23:38:07.251518+00:00",
        "meta_object_name": "COSMOS 2251 DEB",
        "meta_object_id": "1993-036BRS",
        "meta_epoch": "2025-12-17T02:25:21.756000",
        "meta_mean_motion": 14.63882865,
        "meta_eccentricity": 0.0058311,
        "meta_inclination": 74.0428,
        "meta_ra_of_asc_node": 286.9344,
        "meta_arg_of_pericenter": 31.8298,
        "meta_mean_anomaly": 328.6371,
        "meta_ephemeris_type": 0,
        "meta_classification_type": "U",
        "meta_norad_cat_id": 38060,
        "meta_element_set_no": 999,
        "meta_rev_at_epoch": 72028,
        "meta_bstar": 0.00044506343,
        "meta_mean_motion_dot": 2.353e-05,
        "meta_mean_motion_ddot": 0,
        "tle_line1": "1 38060U 93036BRS 25351.10094625  .00002353  00000+0  44506-3 0  9995",
        "tle_line2": "2 38060  74.0428 286.9344 0058311  31.8298 328.6371 14.63882865720289"
      },
      "geometry": {
        "type": "Point",
        "coordinates": [
          -81.80147988442687,
          -23.188325095230546
        ]
      }
    },
    {
      "type": "Feature",
      "properties": {
        "norad_id": 38062,
        "name": "COSMOS 2251 DEB",
        "group": "cosmos-2251-debris",
        "lat": 7.508466141399333,
        "lon": 97.70798268298196,
        "alt_km": 588.5731087470613,
        "timestamp": "2025-12-17T23:38:07.251528+00:00",
        "meta_object_name": "COSMOS 2251 DEB",
        "meta_object_id": "1993-036BRU",
        "meta_epoch": "2025-12-17T02:04:28.793568",
        "meta_mean_motion": 14.95076851,
        "meta_eccentricity": 0.00127653,
        "meta_inclination": 74.0085,
        "meta_ra_of_asc_node": 281.6883,
        "meta_arg_of_pericenter": 50.5623,
        "meta_mean_anomaly": 328.1429,
        "meta_ephemeris_type": 0,
        "meta_classification_type": "U",
        "meta_norad_cat_id": 38062,
        "meta_element_set_no": 999,
        "meta_rev_at_epoch": 63095,
        "meta_bstar": 0.0018936514,
        "meta_mean_motion_dot": 0.00020809,
        "meta_mean_motion_ddot": 0,
        "tle_line1": "1 38062U 93036BRU 25351.08644437  .00020809  00000+0  18937-2 0  9990",
        "tle_line2": "2 38062  74.0085 281.6883 0012765  50.5623 328.1429 14.95076851630951"
      },
      "geometry": {
        "type": "Point",
        "coordinates": [
          97.70798268298196,
          7.508466141399333
        ]
      }
    },
    {
      "type": "Feature",
      "properties": {
        "norad_id": 38064,
        "name": "COSMOS 2251 DEB",
        "group": "cosmos-2251-debris",
        "lat": 71.51329456547795,
        "lon": 173.15697361072932,
        "alt_km": 727.3847668487806,
        "timestamp": "2025-12-17T23:38:07.251538+00:00",
        "meta_object_name": "COSMOS 2251 DEB",
        "meta_object_id": "1993-036BRW",
        "meta_epoch": "2025-12-17T15:01:13.287072",
        "meta_mean_motion": 14.56341127,
        "meta_eccentricity": 0.00473106,
        "meta_inclination": 74.022,
        "meta_ra_of_asc_node": 114.8597,
        "meta_arg_of_pericenter": 233.6527,
        "meta_mean_anomaly": 126.0266,
        "meta_ephemeris_type": 0,
        "meta_classification_type": "U",
        "meta_norad_cat_id": 38064,
        "meta_element_set_no": 999,
        "meta_rev_at_epoch": 71936,
        "meta_bstar": 0.0007632935,
        "meta_mean_motion_dot": 3.406e-05,
        "meta_mean_motion_ddot": 0,
        "tle_line1": "1 38064U 93036BRW 25351.62584823  .00003406  00000+0  76329-3 0  9998",
        "tle_line2": "2 38064  74.0220 114.8597 0047310 233.6527 126.0266 14.56341127719369"
      },
      "geometry": {
        "type": "Point",
        "coordinates": [
          173.15697361072932,
          71.51329456547795
        ]
      }
    },
    {
      "type": "Feature",
      "properties": {
        "norad_id": 38067,
        "name": "COSMOS 2251 DEB",
        "group": "cosmos-2251-debris",
        "lat": 26.055864749851875,
        "lon": 76.41081429174986,
        "alt_km": 698.0451158511205,
        "timestamp": "2025-12-17T23:38:07.251548+00:00",
        "meta_object_name": "COSMOS 2251 DEB",
        "meta_object_id": "1993-036BRZ",
        "meta_epoch": "2025-12-14T13:35:01.091904",
        "meta_mean_motion": 14.61135602,
        "meta_eccentricity": 0.00694851,
        "meta_inclination": 74.0173,
        "meta_ra_of_asc_node": 271.0073,
        "meta_arg_of_pericenter": 58.167,
        "meta_mean_anomaly": 117.7661,
        "meta_ephemeris_type": 0,
        "meta_classification_type": "U",
        "meta_norad_cat_id": 38067,
        "meta_element_set_no": 999,
        "meta_rev_at_epoch": 62582,
        "meta_bstar": 0.00041702153,
        "meta_mean_motion_dot": 2.092e-05,
        "meta_mean_motion_ddot": 0,
        "tle_line1": "1 38067U 93036BRZ 25348.56598486  .00002092  00000+0  41702-3 0  9997",
        "tle_line2": "2 38067  74.0173 271.0073 0069485  58.1670 117.7661 14.61135602625828"
      },
      "geometry": {
        "type": "Point",
        "coordinates": [
          76.41081429174986,
          26.055864749851875
        ]
      }
    },
    {
      "type": "Feature",
      "properties": {
        "norad_id": 38068,
        "name": "COSMOS 2251 DEB",
        "group": "cosmos-2251-debris",
        "lat": 17.687198225303817,
        "lon": 113.37544175391133,
        "alt_km": 783.9639600222536,
        "timestamp": "2025-12-17T23:38:07.251558+00:00",
        "meta_object_name": "COSMOS 2251 DEB",
        "meta_object_id": "1993-036BSA",
        "meta_epoch": "2025-11-26T00:12:22.263264",
        "meta_mean_motion": 14.35960004,
        "meta_eccentricity": 0.00240903,
        "meta_inclination": 74.0219,
        "meta_ra_of_asc_node": 338.9788,
        "meta_arg_of_pericenter": 72.1007,
        "meta_mean_anomaly": 288.2769,
        "meta_ephemeris_type": 0,
        "meta_classification_type": "U",
        "meta_norad_cat_id": 38068,
        "meta_element_set_no": 999,
        "meta_rev_at_epoch": 66406,
        "meta_bstar": 0.00028750999,
        "meta_mean_motion_dot": 8.11e-06,
        "meta_mean_motion_ddot": 0,
        "tle_line1": "1 38068U 93036BSA 25330.00859101  .00000811  00000+0  28751-3 0  9998",
        "tle_line2": "2 38068  74.0219 338.9788 0024090  72.1007 288.2769 14.35960004664064"
      },
      "geometry": {
        "type": "Point",
        "coordinates": [
          113.37544175391133,
          17.687198225303817
        ]
      }
    },
    {
      "type": "Feature",
      "properties": {
        "norad_id": 38197,
        "name": "COSMOS 2251 DEB",
        "group": "cosmos-2251-debris",
        "lat": 29.26342759032974,
        "lon": 157.45410705376494,
        "alt_km": 619.7770520392905,
        "timestamp": "2025-12-17T23:38:07.251568+00:00",
        "meta_object_name": "COSMOS 2251 DEB",
        "meta_object_id": "1993-036BSM",
        "meta_epoch": "2025-12-17T06:39:49.042944",
        "meta_mean_motion": 14.74260895,
        "meta_eccentricity": 0.01254717,
        "meta_inclination": 73.936,
        "meta_ra_of_asc_node": 348.1343,
        "meta_arg_of_pericenter": 224.4902,
        "meta_mean_anomaly": 134.6144,
        "meta_ephemeris_type": 0,
        "meta_classification_type": "U",
        "meta_norad_cat_id": 38197,
        "meta_element_set_no": 999,
        "meta_rev_at_epoch": 85822,
        "meta_bstar": 0.0026828231,
        "meta_mean_motion_dot": 0.00020164,
        "meta_mean_motion_ddot": 0,
        "tle_line1": "1 38197U 93036BSM 25351.27765096  .00020164  00000+0  26828-2 0  9997",
        "tle_line2": "2 38197  73.9360 348.1343 0125471 224.4902 134.6144 14.74260895858221"
      },
      "geometry": {
        "type": "Point",
        "coordinates": [
          157.45410705376494,
          29.26342759032974
        ]
      }
    }
  ]
}